0 NSS 11 (AAP-1)
1 26554U 00059A   13281.80241910 -.00000357  00000-0  10000-3 0  4698
2 26554 000.0506 041.6029 0002137 108.1555 264.9308 01.00269950 47730
0 NSS 11 (AAP-1)
1 26554U 00059A   13282.65064942 -.00000359  00000-0  10000-3 0  4704
2 26554 000.0286 038.4064 0001732 148.5223 173.9450 01.00269787 47744
0 NSS 11 (AAP-1)
1 26554U 00059A   13282.87681152  .00000000  00000-0  10000-3 0  4719
2 26554 000.0310 052.1790 0001873 112.0253 278.3154 01.00265927 47569
0 NSS 11 (AAP-1)
1 26554U 00059A   13285.55559253 -.00000368  00000-0  10000-3 0  4711
2 26554 000.0532 045.2372 0001732 141.7504 142.5344 01.00271813 47762
0 NSS 11 (AAP-1)
1 26554U 00059A   13288.53074744 -.00000370  00000-0  10000-3 0  4723
2 26554 000.0581 045.1973 0001732 141.8507 136.4498 01.00270091 47798
0 NSS 11 (AAP-1)
1 26554U 00059A   13288.53074744 -.00000370  00000-0  10000-3 0  4734
2 26554 000.0581 045.1973 0001732 141.8507 136.4494 01.00270049 47797
0 NSS 11 (AAP-1)
1 26554U 00059A   13289.84566392  .00000000  00000-0  10000-3 0  4744
2 26554 000.0458 056.7760 0001815 129.7396 251.6249 01.00264440 47634
0 NSS 11 (AAP-1)
1 26554U 00059A   13290.75701014 -.00000366  00000-0  10000-3 0  4744
2 26554 000.0667 049.6893 0002134 149.3011 208.1501 01.00270617 47823
0 NSS 11 (AAP-1)
1 26554U 00059A   13293.87444250 -.00000360  00000-0  10000-3 0  4751
2 26554 000.0619 057.5896 0002007 134.4369 260.4801 01.00272756 47854
